ONEWEB-0697             
1 61603U 24188K   24337.44543317  .00009031  00000+0  11120-2 0  9998
2 61603  86.5694 151.9396 0004444  94.0518 266.1213 14.82851840  9374
ONEWEB-0698             
1 61604U 24188L   24337.49843340 -.00047830  00000+0 -59531-2 0  9992
2 61604  86.5786 151.9230 0007193  84.0458 276.1584 14.82886825  9384
ONEWEB-0699             
1 61605U 24188M   24337.58334491 -.01084732  00000+0 -37626+0 0  9996
2 61605  86.9311 152.6519 0003802  85.8028  57.7575 14.38716621  5360
ONEWEB-0700             
1 61606U 24188N   24337.58334491 -.01114399  00000+0 -39830+0 0  9999
2 61606  86.9404 152.6441 0003387  76.2209  71.0910 14.37299428  5420
ONEWEB-0701             
1 61607U 24188P   24337.58334491 -.01108228  00000+0 -38197+0 0  9999
2 61607  86.9316 152.6283 0005585  69.6072 182.2784 14.39096198  7677
ONEWEB-0702             
1 61608U 24188Q   24337.23467194  .00016491  00000+0  20315-2 0  9992
2 61608  86.5827 152.0487 0007179  77.5521 282.6505 14.82833442  9340
ONEWEB-0704             
1 61609U 24188R   24337.58334491 -.01110484  00000+0 -39809+0 0  9999
2 61609  86.9422 152.6831 0003858 102.8529 334.7175 14.37136992  7497
ONEWEB-0705             
1 61610U 24188S   24337.58334491 -.01079777  00000+0 -36319+0 0  9993
2 61610  86.9221 152.5772 0006503  84.9854 293.9340 14.40229890  5335
